     2              NAVIGATION DATA                         RINEX VERSION / TYPE
CCRINEXN V1.6.0 UX  CDDIS               23-JUL-16 15:33     PGM / RUN BY / DATE 
IGS BROADCAST EPHEMERIS FILE                                COMMENT             
    0.7451D-08  0.1490D-07 -0.5960D-07 -0.1192D-06          ION ALPHA           
    0.9216D+05  0.1311D+06 -0.6554D+05 -0.5243D+06          ION BETA            
    0.279396772385D-08 0.710542735760D-14   589824     1906 DELTA-UTC: A0,A1,T,W
    17                                                      LEAP SECONDS        
                                                            END OF HEADER       
 6 16  7 22  8  0  0.0 0.222001690417D-03 0.522959453519D-11 0.000000000000D+00
    0.350000000000D+02-0.109437500000D+03 0.407445543171D-08 0.216677365560D+01
   -0.560469925404D-05 0.314560136758D-03 0.893510878086D-05 0.515373945618D+04
    0.460800000000D+06 0.931322574616D-08 0.311182346588D+01 0.000000000000D+00
    0.965102211261D+00 0.208468750000D+03-0.134909368417D+01-0.791997275580D-08
   -0.121076471893D-09 0.000000000000D+00 0.190600000000D+04 0.000000000000D+00
    0.200000000000D+01 0.000000000000D+00 0.419095158577D-08 0.350000000000D+02
    0.453600000000D+06 0.400000000000D+01 0.000000000000D+00 0.000000000000D+00
 7 16  7 22  8  0  0.0 0.440308824182D-03-0.261479726760D-11 0.000000000000D+00
    0.860000000000D+02-0.147812500000D+02 0.452411701906D-08 0.120040951804D+01
   -0.488013029099D-06 0.979937473312D-02 0.105146318674D-04 0.515363935661D+04
    0.460800000000D+06-0.391155481338D-07-0.433678846179D-02 0.987201929092D-07
    0.966098405808D+00 0.181906250000D+03-0.265726329131D+01-0.804319217410D-08
   -0.692528846606D-09 0.000000000000D+00 0.190600000000D+04 0.000000000000D+00
    0.280000000000D+01 0.000000000000D+00-0.111758708954D-07 0.860000000000D+02
    0.453600000000D+06 0.400000000000D+01 0.000000000000D+00 0.000000000000D+00
 8 16  7 22  8  0  0.0-0.436878763139D-04-0.147792889038D-11 0.000000000000D+00
    0.460000000000D+02 0.275000000000D+01 0.474305471012D-08-0.143635674760D+01
    0.175088644028D-06 0.167613057420D-02 0.138953328133D-05 0.515371963310D+04
    0.460800000000D+06-0.391155481338D-07 0.205934823681D+01 0.577419996262D-07
    0.963625568084D+00 0.355062500000D+03-0.103675575299D+01-0.857249993617D-08
    0.264296723305D-10 0.100000000000D+01 0.190600000000D+04 0.000000000000D+00
    0.200000000000D+01 0.000000000000D+00 0.465661287308D-08 0.460000000000D+02
    0.453600000000D+06 0.400000000000D+01 0.000000000000D+00 0.000000000000D+00
 9 16  7 22  8  0  0.0 0.172139611095D-03 0.727595761418D-11 0.000000000000D+00
    0.240000000000D+02 0.993750000000D+01 0.532022159661D-08-0.265422222840D+01
    0.623986124992D-06 0.504598603584D-03 0.455603003502D-05 0.515352928162D+04
    0.460800000000D+06-0.353902578354D-07-0.108247928536D+01 0.931322574616D-08
    0.954368117149D+00 0.290531250000D+03 0.239899015294D+01-0.842213676577D-08
    0.117147735956D-09 0.100000000000D+01 0.190600000000D+04 0.000000000000D+00
    0.200000000000D+01 0.000000000000D+00 0.139698386192D-08 0.240000000000D+02
    0.453600000000D+06 0.000000000000D+00 0.000000000000D+00 0.000000000000D+00
10 16  7 22  8  0  0.0-0.700228847563D-04-0.693489710102D-11 0.000000000000D+00
    0.820000000000D+02 0.209062500000D+02 0.447982946002D-08-0.387689456251D+00
    0.119954347610D-05 0.163691607304D-02 0.114608556032D-04 0.515368333817D+04
    0.460800000000D+06 0.279396772385D-07-0.212574619414D+01 0.558793544769D-07
    0.959492410504D+00 0.156906250000D+03-0.274366472524D+01-0.794854537453D-08
    0.701457789961D-09 0.100000000000D+01 0.190600000000D+04 0.000000000000D+00
    0.200000000000D+01 0.000000000000D+00 0.232830643654D-08 0.820000000000D+02
    0.453600000000D+06 0.400000000000D+01 0.000000000000D+00 0.000000000000D+00
11 16  7 22  8  0  0.0-0.656716525555D-03-0.125055521494D-11 0.000000000000D+00
    0.108000000000D+03-0.124750000000D+03 0.600346435410D-08 0.131505330232D+01
   -0.679865479469D-05 0.166381322779D-01 0.425986945629D-05 0.515367542648D+04
    0.460800000000D+06-0.689178705216D-07 0.273946513070D+01-0.359490513802D-06
    0.897560981989D+00 0.267500000000D+03 0.154608876835D+01-0.916002440893D-08
   -0.295369446180D-09 0.100000000000D+01 0.190600000000D+04 0.000000000000D+00
    0.280000000000D+01 0.000000000000D+00-0.121071934700D-07 0.108000000000D+03
    0.453600000000D+06 0.400000000000D+01 0.000000000000D+00 0.000000000000D+00
12 16  7 22  8  0  0.0 0.385859049857D-03 0.909494701773D-12 0.000000000000D+00
    0.240000000000D+02 0.113000000000D+03 0.381158733934D-08 0.603460962308D+00
    0.592507421970D-05 0.610109942499D-02 0.830553472042D-05 0.515369459724D+04
    0.460800000000D+06-0.838190317154D-07 0.107257909258D+01 0.128522515297D-06
    0.990217865337D+00 0.234406250000D+03 0.781924271313D+00-0.781996859022D-08
    0.124290891500D-09 0.100000000000D+01 0.190600000000D+04 0.000000000000D+00
    0.200000000000D+01 0.000000000000D+00-0.125728547573D-07 0.240000000000D+02
    0.453600000000D+06 0.400000000000D+01 0.000000000000D+00 0.000000000000D+00
13 16  7 22  8  0  0.0-0.327345915139D-04-0.238742359215D-11 0.000000000000D+00
    0.270000000000D+02-0.375000000000D+01 0.487698886045D-08 0.213696747508D+01
   -0.298023223877D-06 0.414032232948D-02 0.469014048576D-05 0.515367342186D+04
    0.460800000000D+06 0.577419996262D-07-0.960876592870D+00-0.707805156708D-07
    0.970779642720D+00 0.294812500000D+03 0.199579043984D+01-0.817319758934D-08
   -0.136791412197D-09 0.000000000000D+00 0.190600000000D+04 0.000000000000D+00
    0.200000000000D+01 0.000000000000D+00-0.111758708954D-07 0.270000000000D+02
    0.453600000000D+06 0.400000000000D+01 0.000000000000D+00 0.000000000000D+00
14 16  7 22  8  0  0.0-0.258674845099D-04-0.193267624127D-11 0.000000000000D+00
    0.460000000000D+02-0.515625000000D+01 0.508699760816D-08-0.259455047436D+01
   -0.283122062683D-06 0.888448616024D-02 0.451505184174D-05 0.515402871323D+04
    0.460800000000D+06 0.189989805222D-06-0.998284830113D+00 0.000000000000D+00
    0.963248907640D+00 0.291250000000D+03-0.195982255663D+01-0.822641409174D-08
    0.235724104569D-10 0.100000000000D+01 0.190600000000D+04 0.000000000000D+00
    0.200000000000D+01 0.000000000000D+00-0.931322574616D-08 0.460000000000D+02
    0.453600000000D+06 0.400000000000D+01 0.000000000000D+00 0.000000000000D+00
15 16  7 22  8  0  0.0-0.320366118103D-03-0.147792889038D-11 0.000000000000D+00
    0.540000000000D+02 0.871875000000D+01 0.584631495106D-08-0.303827213465D+01
    0.407919287682D-06 0.822974136099D-02 0.421330332756D-05 0.515362221909D+04
    0.460800000000D+06-0.894069671631D-07-0.113642851642D+01-0.130385160446D-06
    0.930054705403D+00 0.285343750000D+03 0.487345567282D+00-0.859285792702D-08
    0.102861427449D-09 0.000000000000D+00 0.190600000000D+04 0.000000000000D+00
    0.200000000000D+01 0.000000000000D+00-0.107102096081D-07 0.540000000000D+02
    0.453600000000D+06 0.400000000000D+01 0.000000000000D+00 0.000000000000D+00
16 16  7 22  8  0  0.0-0.330526381731D-05 0.216004991671D-11 0.000000000000D+00
    0.160000000000D+02 0.116093750000D+03 0.367229580078D-08-0.142660651710D+01
    0.602565705776D-05 0.869885669090D-02 0.898540019989D-05 0.515353893089D+04
    0.460800000000D+06 0.968575477600D-07 0.109137899138D+01-0.141561031342D-06
    0.990709715951D+00 0.223312500000D+03 0.388329286879D+00-0.770032038133D-08
    0.282868922730D-09 0.100000000000D+01 0.190600000000D+04 0.000000000000D+00
    0.200000000000D+01 0.000000000000D+00-0.107102096081D-07 0.160000000000D+02
    0.453600000000D+06 0.000000000000D+00 0.000000000000D+00 0.000000000000D+00
17 16  7 22  8  0  0.0-0.203853007406D-03 0.113686837722D-12 0.000000000000D+00
    0.850000000000D+02-0.169687500000D+02 0.429410743824D-08-0.227130717647D+01
   -0.772997736931D-06 0.110243695090D-01 0.151991844177D-05 0.515372027206D+04
    0.460800000000D+06 0.149011611938D-06 0.211272784122D+01-0.763684511185D-07
    0.976799294606D+00 0.360125000000D+03-0.192648613973D+01-0.809176562595D-08
   -0.103575742917D-10 0.000000000000D+00 0.190600000000D+04 0.000000000000D+00
    0.200000000000D+01 0.000000000000D+00-0.107102096081D-07 0.850000000000D+02
    0.453600000000D+06 0.400000000000D+01 0.000000000000D+00 0.000000000000D+00
18 16  7 22  8  0  0.0 0.539085827768D-03 0.409272615798D-11 0.000000000000D+00
    0.110000000000D+02 0.333437500000D+02 0.534950854279D-08-0.712579966250D+00
    0.192411243916D-05 0.172694671201D-01 0.112485140562D-04 0.515370539284D+04
    0.460800000000D+06-0.143423676491D-06-0.215676496551D+01 0.288709998131D-06
    0.925010461462D+00 0.150687500000D+03-0.186950902666D+01-0.864143137887D-08
    0.712529679721D-09 0.100000000000D+01 0.190600000000D+04 0.000000000000D+00
    0.200000000000D+01 0.000000000000D+00-0.121071934700D-07 0.110000000000D+02
    0.453600000000D+06 0.400000000000D+01 0.000000000000D+00 0.000000000000D+00
19 16  7 22  8  0  0.0-0.524789094925D-03 0.227373675443D-12 0.000000000000D+00
    0.730000000000D+02-0.205937500000D+02 0.439268297288D-08 0.842266880094D+00
   -0.879168510437D-06 0.107282130048D-01 0.217743217945D-05 0.515362185097D+04
    0.460800000000D+06-0.193715095520D-06 0.216138198763D+01 0.502914190292D-07
    0.973953547360D+00 0.348593750000D+03 0.824820667674D+00-0.838892086080D-08
   -0.208580116771D-09 0.000000000000D+00 0.190600000000D+04 0.000000000000D+00
    0.200000000000D+01 0.000000000000D+00-0.149011611938D-07 0.730000000000D+02
    0.453600000000D+06 0.400000000000D+01 0.000000000000D+00 0.000000000000D+00
